PHASE 3B (AO-10)        
1 14129U 83058B   21036.39639676 -.00000349  00000-0  00000-0 0  9999
2 14129  25.8123 176.6049 6060358 307.4302  11.3915  2.05870970255202
UOSAT 2 (UO-11)         
1 14781U 84021B   21036.57702915  .00000116  00000-0  20200-4 0  9990
2 14781  97.5907  42.9314 0009205 146.6979 213.4816 14.83244149987381
LUSAT (LO-19)           
1 20442U 90005G   21036.86828729 -.00000005  00000-0  14595-4 0  9992
2 20442  98.7243 351.2640 0011604 182.8823 177.2296 14.32975354622043
EYESAT A (AO-27)        
1 22825U 93061C   21036.77586283 -.00000001  00000-0  17741-4 0  9992
2 22825  98.9243  51.1096 0009336  61.7906 298.4217 14.30105302427160
ITAMSAT (IO-26)         
1 22826U 93061D   21036.98722435  .00000002  00000-0  18861-4 0  9991
2 22826  98.9184  51.2477 0009727  49.6835 310.5195 14.30443019427687
RADIO ROSTO (RS-15)     
1 23439U 94085A   21036.90951528 -.00000037  00000-0  15882-3 0  9996
2 23439  64.8138 228.7046 0156880 358.9488   1.1084 11.27570425 75500
JAS-2 (FO-29)           
1 24278U 96046B   21036.68272715 -.00000053  00000-0 -20672-4 0  9999
2 24278  98.5819 122.0462 0351075 130.8933 232.3185 13.53101961208420
TECHSAT 1B (GO-32)      
1 25397U 98043D   21037.12486175 -.00000006  00000-0  16845-4 0  9992
2 25397  98.7567 343.1446 0002349  96.2592 263.8854 14.23700666173020
ISS (ZARYA)             
1 25544U 98067A   21037.26428420 -.00000260  00000-0  34420-5 0  9998
2 25544  51.6459 270.2812 0002485 341.4332 126.4262 15.48936677268301
PCSAT (NO-44)           
1 26931U 01043C   21037.09483334 -.00000019  00000-0  24422-4 0  9995
2 26931  67.0496 259.4446 0007363 270.2751  89.7507 14.30605223 10566
SAUDISAT 1C (SO-50)     
1 27607U 02058C   21036.69804644  .00000011  00000-0  21907-4 0  9995
2 27607  64.5563  21.2248 0029620  78.2915 282.1509 14.75708683975112
CUTE-1 (CO-55)          
1 27844U 03031E   21036.99518803  .00000054  00000-0  43781-4 0  9993
2 27844  98.6822  47.1896 0010928  98.8706 261.3709 14.22286331913334
CUBESAT XI-IV (CO-57)   
1 27848U 03031J   21037.01977412  .00000042  00000-0  38583-4 0  9997
2 27848  98.6882  47.7819 0010783 110.5337 249.6999 14.21866418913166
MOZHAYETS 4 (RS-22)     
1 27939U 03042A   21037.14843463  .00000122  00000-0  30431-4 0  9995
2 27939  98.1183 175.3322 0012082 340.9031  19.1710 14.66940708928270
CUBESAT XI-V            
1 28895U 05043F   21036.84840816  .00000130  00000-0  33769-4 0  9991
2 28895  98.0374 173.1315 0015490 264.1916  95.7521 14.63861431814755
CUTE-1.7+APD II (CO-65) 
1 32785U 08021C   21036.65774931  .00000271  00000-0  34653-4 0  9995
2 32785  97.5971  20.7328 0014521  81.2056 279.0806 14.88625515692635
DELFI-C3 (DO-64)        
1 32789U 08021G   21037.16248531  .00001193  00000-0  80415-4 0  9999
2 32789  97.3928  77.5175 0010784 228.3291 131.7016 15.08462999697136
SEEDS II (CO-66)        
1 32791U 08021J   21036.72135428  .00000528  00000-0  58285-4 0  9994
2 32791  97.5596  26.8204 0014391  49.5131 310.7340 14.91267603693227
YUBILEINY (RS-30)       
1 32953U 08025A   21037.04017812  .00000028  00000-0  12906-3 0  9994
2 32953  82.5057 132.6699 0018418 262.1431  97.7559 12.43099643576650
KKS-1 (KISEKI)          
1 33499U 09002H   21037.12765360  .00000085  00000-0  20331-4 0  9998
2 33499  98.2877 264.0162 0010348  98.8599 261.3782 14.75614225647470
SWISSCUBE               
1 35932U 09051B   21036.79979626  .00000139  00000-0  42284-4 0  9991
2 35932  98.6071 232.6169 0008429 127.1542 233.0426 14.56484507603798
BEESAT-1                
1 35933U 09051C   21037.11437495  .00000103  00000-0  34204-4 0  9996
2 35933  98.6048 234.7946 0006495 136.1797 223.9916 14.56548817603991
ITUPSAT1                
1 35935U 09051E   21037.10928805  .00000098  00000-0  33690-4 0  9998
2 35935  98.6154 234.9525 0008817 138.5556 221.6310 14.55686399603692
XIWANG-1 (HOPE-1)       
1 36122U 09072B   21036.73846257 -.00000060  00000-0 -45301-4 0  9991
2 36122 100.1162  22.9466 0007944  49.9784 310.2026 13.16358646535562
JUGNU                   
1 37839U 11058B   21037.09455787  .00000319  00000-0  28025-4 0  9997
2 37839  19.9616 305.8532 0018987  84.5306  49.5157 14.12702608481970
SRMSAT                  
1 37841U 11058D   21036.66348708  .00000296  00000-0  17310-4 0  9995
2 37841  19.9736  17.6160 0011636 286.0951 230.1373 14.10684154481083
M-CUBED & EXP-1 PRIME   
1 37855U 11061F   21036.53695173  .00001510  00000-0  80357-4 0  9992
2 37855 101.7260 251.5302 0168403 102.9030 259.1051 15.07165786506305
STRAND-1                
1 39090U 13009E   21036.49971298  .00000022  00000-0  22731-4 0  9998
2 39090  98.4365 241.7260 0008351 316.8304  43.2226 14.35167233416119
SOMP                    
1 39134U 13015E   21036.72641319  .00001651  00000-0  80937-4 0  9999
2 39134  64.8608 240.6419 0010601 220.3368 139.6975 15.21954429431169
BEESAT-3                
1 39135U 13015F   21036.71666192  .00001073  00000-0  60685-4 0  9991
2 39135  64.8651 267.7398 0013806 202.8712 157.1802 15.18886730430632
BEESAT-2                
1 39136U 13015G   21036.92358355  .00001109  00000-0  63188-4 0  9995
2 39136  64.8732 272.9276 0028281 261.2437  98.5486 15.18272303430543
ZACUBE-1 (TSHEPISOSAT)  
1 39417U 13066B   21036.94585227  .00000231  00000-0  35266-4 0  9996
2 39417  97.5816  28.1791 0057478 231.4433 128.1623 14.81422597389603
GOMX-1                  
1 39430U 13066Q   21037.04546781  .00000181  00000-0  41610-4 0  9999
2 39430  97.8098 327.6971 0150821 168.2589 192.2197 14.59530110383872
CUBEBUG-2 (LO-74)       
1 39440U 13066AA  21036.88581108  .00000274  00000-0  45070-4 0  9990
2 39440  97.6597  12.8567 0078730 303.1019  56.2651 14.76156874387019
FUNCUBE-1 (AO-73)       
1 39444U 13066AE  21036.94210500  .00000274  00000-0  39786-4 0  9993
2 39444  97.5735  30.5082 0056721 222.3056 137.3777 14.82309280387955
UWE-3                   
1 39446U 13066AG  21037.21919697  .00000236  00000-0  37907-4 0  9990
2 39446  97.6226  20.2302 0068273 267.2725  92.0671 14.78691346387705
SPROUT                  
1 39770U 14029E   21037.10566678  .00000741  00000-0  86424-4 0  9994
2 39770  97.9077 148.6223 0007641 281.0487  78.9837 14.88162486363801
UNISAT-6                
1 40012U 14033C   21036.83043485  .00000186  00000-0  34960-4 0  9996
2 40012  97.6863 246.0728 0057436 327.2021  32.5628 14.74237073356805
DUCHIFAT-1              
1 40021U 14033M   21036.75340517  .00000495  00000-0  55670-4 0  9997
2 40021  97.9620 335.6587 0011516 235.6838 124.3290 14.91170365360656
QB50P1                  
1 40025U 14033R   21036.74054424  .00000377  00000-0  45701-4 0  9992
2 40025  97.9272 327.1481 0011024 250.3806 109.6222 14.89322483359819
NUDT-PHONESAT           
1 40900U 15049B   21037.15977248  .00003170  00000-0  12809-3 0  9992
2 40900  97.4254  52.1885 0010701 236.9718 187.8505 15.25442258298809
ZDPS 2A                 
1 40901U 15049C   21037.19980068  .00001707  00000-0  84741-4 0  9990
2 40901  97.4632  45.9145 0011601 282.5472 208.2209 15.19005183298043
ZDPS 2B                 
1 40902U 15049D   21037.18171951  .00001715  00000-0  85098-4 0  9998
2 40902  97.4650  43.1849 0011467 278.3787 213.6810 15.19022447298014
XW-2A                   
1 40903U 15049E   21037.19760966  .00003174  00000-0  70526-4 0  9991
2 40903  97.2568  92.0217 0014274 128.8658 303.4736 15.44341052302530
KAITUO 1A               
1 40904U 15049F   21037.21376689  .00000629  00000-0  36190-4 0  9991
2 40904  97.4838  40.8242 0012940 296.7032 192.1899 15.15991831297654
2015-049G               
1 40905U 15049G   21037.13548403  .00000499  00000-0  30418-4 0  9990
2 40905  97.4960  37.8632 0014086 295.1767 129.1317 15.14817290297459
XW-2C                   
1 40906U 15049H   21037.20496846  .00000974  00000-0  53408-4 0  9994
2 40906  97.4832  41.2406 0013057 285.2130 205.6821 15.16468519297679
XW-2D                   
1 40907U 15049J   21037.14731920  .00000857  00000-0  47059-4 0  9998
2 40907  97.4822  40.9374 0012332 281.5536 142.7127 15.16751158297699
LILACSAT-2              
1 40908U 15049K   21037.24960943  .00000702  00000-0  41940-4 0  9991
2 40908  97.5003  39.0691 0014257 295.9369 127.3069 15.14279689297375
XW-2F                   
1 40910U 15049M   21037.13759264  .00001468  00000-0  74206-4 0  9995
2 40910  97.4718  43.8386 0012846 268.0800 156.5935 15.18584396297797
XW-2B                   
1 40911U 15049N   21037.14308058  .00000915  00000-0  50135-4 0  9999
2 40911  97.4832  41.6280 0012294 283.1833 141.2303 15.16672018297589
KAITUO 1B               
1 40912U 15049P   21037.15401438  .00001626  00000-0  76221-4 0  9991
2 40912  97.4475  48.1833 0012952 238.6518 186.6221 15.21061380298230
TIANWANG 1C (TW-1C)     
1 40926U 15051B   21037.16886356  .00244280  25443-4  58835-3 0  9993
2 40926  97.0460  98.9754 0002740 244.4343 176.9109 15.96445084303801
TIANWANG 1A (TW-1A)     
1 40928U 15051D   21037.19358620  .00004481  00000-0  98471-4 0  9992
2 40928  97.0902  65.2816 0011465  60.5171   4.4398 15.44447366301429
LAPAN-A2                
1 40931U 15052B   21036.77230682  .00000600  00000-0 -56382-5 0  9993
2 40931   5.9982 111.5267 0013685 341.0460  18.9298 14.76659960289803
E-ST@R-II               
1 41459U 16025D   21037.07892917  .00003964  00000-0  19649-3 0  9997
2 41459  98.1222 165.6859 0163327 145.0810 216.1236 15.07419332262624
AAUSAT 4                
1 41460U 16025E   21037.16300531  .00005553  00000-0  26318-3 0  9992
2 41460  98.1217 169.0232 0150721 130.7160 230.7244 15.10187080262892
NUSAT-1 (FRESCO)        
1 41557U 16033B   21037.24844943  .00001870  00000-0  69280-4 0  9991
2 41557  97.3959 131.9936 0012411 347.6609  36.2880 15.28849952261483
BEESAT-4                
1 41619U 16040W   21036.65489017  .00001882  00000-0  78399-4 0  9993
2 41619  97.2897  96.3582 0012491  79.5787 280.6858 15.24877281244921
